[{"OBJECT_NAME":"STARLINK-31149","OBJECT_ID":"2024-019L","EPOCH":"2026-03-09T12:48:25.428096","MEAN_MOTION":15.27591575,"ECCENTRICITY":6.315e-5,"INCLINATION":42.9972,"RA_OF_ASC_NODE":249.3676,"ARG_OF_PERICENTER":268.5815,"MEAN_ANOMALY":91.4965,"EPHEMERIS_TYPE":0,"CLASSIFICATION_TYPE":"U","NORAD_CAT_ID":58863,"ELEMENT_SET_NO":999,"REV_AT_EPOCH":11906,"BSTAR":-0.00014324186,"MEAN_MOTION_DOT":-4.203e-5,"MEAN_MOTION_DDOT":0},{"OBJECT_NAME":"HAWK-11B","OBJECT_ID":"2024-247C","EPOCH":"2026-03-09T10:44:06.809856","MEAN_MOTION":15.2884707,"ECCENTRICITY":0.00046902,"INCLINATION":45.0161,"RA_OF_ASC_NODE":115.761,"ARG_OF_PERICENTER":333.0326,"MEAN_ANOMALY":27.0314,"EPHEMERIS_TYPE":0,"CLASSIFICATION_TYPE":"U","NORAD_CAT_ID":62379,"ELEMENT_SET_NO":999,"REV_AT_EPOCH":6773,"BSTAR":0.00032841927,"MEAN_MOTION_DOT":9.093e-5,"MEAN_MOTION_DDOT":0}]
